ATLAS CENTAUR R/B       
1 06155U 72065B   26085.04433082  .00001301  00000+0  18021-3 0  9991
2 06155  35.0006 209.9044 0033143 148.7035 211.5646 14.77731184843680
SL-8 R/B                
1 08459U 75112B   26085.12769381  .00000240  00000+0  87565-4 0  9990
2 08459  74.0633 348.6764 0014517  75.1057 285.1704 14.38213133634236
SL-3 R/B                
1 10114U 77057B   26085.16207394  .00012972  00000+0  26802-3 0  9997
2 10114  97.5798 257.8157 0006604 215.1145 144.9669 15.45951667670870
SEASAT 1                
1 10967U 78064A   26085.16654367  .00000259  00000+0  11080-3 0  9995
2 10967 108.0080 160.0724 0002585 277.9475  82.1377 14.46173411508893
SL-14 R/B               
1 11267U 79011B   26085.07956287  .00000655  00000+0  62114-4 0  9993
2 11267  82.5207  81.0132 0016207   8.7221 351.4277 14.91928157531223
SL-8 R/B                
1 11574U 79089B   26085.18363340  .00000255  00000+0  85006-4 0  9994
2 11574  74.0681  60.5079 0016843 231.1507 128.8147 14.42359921438482
SL-14 R/B               
1 11672U 80005B   26085.03627039  .00000530  00000+0  50984-4 0  9998
2 11672  82.5115 291.7272 0017200 107.3287 252.9815 14.90947880478921
SL-8 R/B                
1 12139U 81003B   26085.02390265  .00020439  00000+0  51351-3 0  9991
2 12139  82.9350 274.9115 0261165 121.7689 240.9276 15.11671572317141
SL-3 R/B                
1 12465U 81046B   26085.13499854  .00010825  00000+0  24850-3 0  9998
2 12465  81.2287 269.9867 0018330 324.2127  35.7886 15.42387296440968
SL-3 R/B                
1 12904U 81103B   26085.14806440  .00004737  00000+0  20865-3 0  9991
2 12904  81.1605 194.1258 0012679 227.6123 132.4037 15.21567516975737
SL-3 R/B                
1 13068U 82013B   26085.14948950  .00003678  00000+0  15803-3 0  9996
2 13068  81.1742 141.4784 0023431 123.3222 237.0258 15.22163419406854
SL-3 R/B                
1 13154U 82039B   26085.15551487  .00002444  00000+0  14699-3 0  9998
2 13154  81.1570 196.9765 0028807 270.1609  89.6315 15.10170248384120
