CCSDS_OMM_VERS = 2.0
CREATION_DATE  = 
ORIGINATOR     = 

OBJECT_NAME    = ATLAS CENTAUR R/B
OBJECT_ID      = 1972-065B
CENTER_NAME    = EARTH
REF_FRAME      = TEME
TIME_SYSTEM    = UTC
MEAN_ELEMENT_THEORY = SGP/SGP4

EPOCH          = 2026-03-26T01:03:50.182848
MEAN_MOTION    = 14.77731184
ECCENTRICITY   = .0033143
INCLINATION    = 35.0006
RA_OF_ASC_NODE = 209.9044
ARG_OF_PERICENTER = 148.7035
MEAN_ANOMALY   = 211.5646

EPHEMERIS_TYPE = 0
CLASSIFICATION_TYPE = U
NORAD_CAT_ID   = 6155
ELEMENT_SET_NO = 999
REV_AT_EPOCH   = 84368
BSTAR          = .18021E-3
MEAN_MOTION_DOT = .1301E-4
MEAN_MOTION_DDOT = 0

CCSDS_OMM_VERS = 2.0
CREATION_DATE  = 
ORIGINATOR     = 

OBJECT_NAME    = SL-8 R/B
OBJECT_ID      = 1975-112B
CENTER_NAME    = EARTH
REF_FRAME      = TEME
TIME_SYSTEM    = UTC
MEAN_ELEMENT_THEORY = SGP/SGP4

EPOCH          = 2026-03-26T03:03:52.745184
MEAN_MOTION    = 14.38213133
ECCENTRICITY   = .0014517
INCLINATION    = 74.0633
RA_OF_ASC_NODE = 348.6764
ARG_OF_PERICENTER = 75.1057
MEAN_ANOMALY   = 285.1704

EPHEMERIS_TYPE = 0
CLASSIFICATION_TYPE = U
NORAD_CAT_ID   = 8459
ELEMENT_SET_NO = 999
REV_AT_EPOCH   = 63423
BSTAR          = .87565E-4
MEAN_MOTION_DOT = .24E-5
MEAN_MOTION_DDOT = 0

CCSDS_OMM_VERS = 2.0
CREATION_DATE  = 
ORIGINATOR     = 

OBJECT_NAME    = SL-3 R/B
OBJECT_ID      = 1977-057B
CENTER_NAME    = EARTH
REF_FRAME      = TEME
TIME_SYSTEM    = UTC
MEAN_ELEMENT_THEORY = SGP/SGP4

EPOCH          = 2026-03-26T03:53:23.188416
MEAN_MOTION    = 15.45951667
ECCENTRICITY   = .0006604
INCLINATION    = 97.5798
RA_OF_ASC_NODE = 257.8157
ARG_OF_PERICENTER = 215.1145
MEAN_ANOMALY   = 144.9669

EPHEMERIS_TYPE = 0
CLASSIFICATION_TYPE = U
NORAD_CAT_ID   = 10114
ELEMENT_SET_NO = 999
REV_AT_EPOCH   = 67087
BSTAR          = .26802E-3
MEAN_MOTION_DOT = .12972E-3
MEAN_MOTION_DDOT = 0

CCSDS_OMM_VERS = 2.0
CREATION_DATE  = 
ORIGINATOR     = 

OBJECT_NAME    = SEASAT 1
OBJECT_ID      = 1978-064A
CENTER_NAME    = EARTH
REF_FRAME      = TEME
TIME_SYSTEM    = UTC
MEAN_ELEMENT_THEORY = SGP/SGP4

EPOCH          = 2026-03-26T03:59:49.373088
MEAN_MOTION    = 14.46173411
ECCENTRICITY   = .0002585
INCLINATION    = 108.0080
RA_OF_ASC_NODE = 160.0724
ARG_OF_PERICENTER = 277.9475
MEAN_ANOMALY   = 82.1377

EPHEMERIS_TYPE = 0
CLASSIFICATION_TYPE = U
NORAD_CAT_ID   = 10967
ELEMENT_SET_NO = 999
REV_AT_EPOCH   = 50889
BSTAR          = .1108E-3
MEAN_MOTION_DOT = .259E-5
MEAN_MOTION_DDOT = 0

CCSDS_OMM_VERS = 2.0
CREATION_DATE  = 
ORIGINATOR     = 

OBJECT_NAME    = SL-14 R/B
OBJECT_ID      = 1979-011B
CENTER_NAME    = EARTH
REF_FRAME      = TEME
TIME_SYSTEM    = UTC
MEAN_ELEMENT_THEORY = SGP/SGP4

EPOCH          = 2026-03-26T01:54:34.231968
MEAN_MOTION    = 14.91928157
ECCENTRICITY   = .0016207
INCLINATION    = 82.5207
RA_OF_ASC_NODE = 81.0132
ARG_OF_PERICENTER = 8.7221
MEAN_ANOMALY   = 351.4277

EPHEMERIS_TYPE = 0
CLASSIFICATION_TYPE = U
NORAD_CAT_ID   = 11267
ELEMENT_SET_NO = 999
REV_AT_EPOCH   = 53122
BSTAR          = .62114E-4
MEAN_MOTION_DOT = .655E-5
MEAN_MOTION_DDOT = 0

CCSDS_OMM_VERS = 2.0
CREATION_DATE  = 
ORIGINATOR     = 

OBJECT_NAME    = SL-8 R/B
OBJECT_ID      = 1979-089B
CENTER_NAME    = EARTH
REF_FRAME      = TEME
TIME_SYSTEM    = UTC
MEAN_ELEMENT_THEORY = SGP/SGP4

EPOCH          = 2026-03-26T04:24:25.925760
MEAN_MOTION    = 14.42359921
ECCENTRICITY   = .0016843
INCLINATION    = 74.0681
RA_OF_ASC_NODE = 60.5079
ARG_OF_PERICENTER = 231.1507
MEAN_ANOMALY   = 128.8147

EPHEMERIS_TYPE = 0
CLASSIFICATION_TYPE = U
NORAD_CAT_ID   = 11574
ELEMENT_SET_NO = 999
REV_AT_EPOCH   = 43848
BSTAR          = .85006E-4
MEAN_MOTION_DOT = .255E-5
MEAN_MOTION_DDOT = 0

CCSDS_OMM_VERS = 2.0
CREATION_DATE  = 
ORIGINATOR     = 

OBJECT_NAME    = SL-14 R/B
OBJECT_ID      = 1980-005B
CENTER_NAME    = EARTH
REF_FRAME      = TEME
TIME_SYSTEM    = UTC
MEAN_ELEMENT_THEORY = SGP/SGP4

EPOCH          = 2026-03-26T00:52:13.761696
MEAN_MOTION    = 14.90947880
ECCENTRICITY   = .00172
INCLINATION    = 82.5115
RA_OF_ASC_NODE = 291.7272
ARG_OF_PERICENTER = 107.3287
MEAN_ANOMALY   = 252.9815

EPHEMERIS_TYPE = 0
CLASSIFICATION_TYPE = U
NORAD_CAT_ID   = 11672
ELEMENT_SET_NO = 999
REV_AT_EPOCH   = 47892
BSTAR          = .50984E-4
MEAN_MOTION_DOT = .53E-5
MEAN_MOTION_DDOT = 0

CCSDS_OMM_VERS = 2.0
CREATION_DATE  = 
ORIGINATOR     = 

OBJECT_NAME    = SL-8 R/B
OBJECT_ID      = 1981-003B
CENTER_NAME    = EARTH
REF_FRAME      = TEME
TIME_SYSTEM    = UTC
MEAN_ELEMENT_THEORY = SGP/SGP4

EPOCH          = 2026-03-26T00:34:25.188960
MEAN_MOTION    = 15.11671572
ECCENTRICITY   = .0261165
INCLINATION    = 82.9350
RA_OF_ASC_NODE = 274.9115
ARG_OF_PERICENTER = 121.7689
MEAN_ANOMALY   = 240.9276

EPHEMERIS_TYPE = 0
CLASSIFICATION_TYPE = U
NORAD_CAT_ID   = 12139
ELEMENT_SET_NO = 999
REV_AT_EPOCH   = 31714
BSTAR          = .51351E-3
MEAN_MOTION_DOT = .20439E-3
MEAN_MOTION_DDOT = 0

CCSDS_OMM_VERS = 2.0
CREATION_DATE  = 
ORIGINATOR     = 

OBJECT_NAME    = SL-3 R/B
OBJECT_ID      = 1981-046B
CENTER_NAME    = EARTH
REF_FRAME      = TEME
TIME_SYSTEM    = UTC
MEAN_ELEMENT_THEORY = SGP/SGP4

EPOCH          = 2026-03-26T03:14:23.873856
MEAN_MOTION    = 15.42387296
ECCENTRICITY   = .001833
INCLINATION    = 81.2287
RA_OF_ASC_NODE = 269.9867
ARG_OF_PERICENTER = 324.2127
MEAN_ANOMALY   = 35.7886

EPHEMERIS_TYPE = 0
CLASSIFICATION_TYPE = U
NORAD_CAT_ID   = 12465
ELEMENT_SET_NO = 999
REV_AT_EPOCH   = 44096
BSTAR          = .2485E-3
MEAN_MOTION_DOT = .10825E-3
MEAN_MOTION_DDOT = 0

CCSDS_OMM_VERS = 2.0
CREATION_DATE  = 
ORIGINATOR     = 

OBJECT_NAME    = SL-3 R/B
OBJECT_ID      = 1981-103B
CENTER_NAME    = EARTH
REF_FRAME      = TEME
TIME_SYSTEM    = UTC
MEAN_ELEMENT_THEORY = SGP/SGP4

EPOCH          = 2026-03-26T03:33:12.764160
MEAN_MOTION    = 15.21567516
ECCENTRICITY   = .0012679
INCLINATION    = 81.1605
RA_OF_ASC_NODE = 194.1258
ARG_OF_PERICENTER = 227.6123
MEAN_ANOMALY   = 132.4037

EPHEMERIS_TYPE = 0
CLASSIFICATION_TYPE = U
NORAD_CAT_ID   = 12904
ELEMENT_SET_NO = 999
REV_AT_EPOCH   = 97573
BSTAR          = .20865E-3
MEAN_MOTION_DOT = .4737E-4
MEAN_MOTION_DDOT = 0

CCSDS_OMM_VERS = 2.0
CREATION_DATE  = 
ORIGINATOR     = 

OBJECT_NAME    = SL-3 R/B
OBJECT_ID      = 1982-013B
CENTER_NAME    = EARTH
REF_FRAME      = TEME
TIME_SYSTEM    = UTC
MEAN_ELEMENT_THEORY = SGP/SGP4

EPOCH          = 2026-03-26T03:35:15.892800
MEAN_MOTION    = 15.22163419
ECCENTRICITY   = .0023431
INCLINATION    = 81.1742
RA_OF_ASC_NODE = 141.4784
ARG_OF_PERICENTER = 123.3222
MEAN_ANOMALY   = 237.0258

EPHEMERIS_TYPE = 0
CLASSIFICATION_TYPE = U
NORAD_CAT_ID   = 13068
ELEMENT_SET_NO = 999
REV_AT_EPOCH   = 40685
BSTAR          = .15803E-3
MEAN_MOTION_DOT = .3678E-4
MEAN_MOTION_DDOT = 0

CCSDS_OMM_VERS = 2.0
CREATION_DATE  = 
ORIGINATOR     = 

OBJECT_NAME    = SL-3 R/B
OBJECT_ID      = 1982-039B
CENTER_NAME    = EARTH
REF_FRAME      = TEME
TIME_SYSTEM    = UTC
MEAN_ELEMENT_THEORY = SGP/SGP4

EPOCH          = 2026-03-26T03:43:56.484768
MEAN_MOTION    = 15.10170248
ECCENTRICITY   = .0028807
INCLINATION    = 81.1570
RA_OF_ASC_NODE = 196.9765
ARG_OF_PERICENTER = 270.1609
MEAN_ANOMALY   = 89.6315

EPHEMERIS_TYPE = 0
CLASSIFICATION_TYPE = U
NORAD_CAT_ID   = 13154
ELEMENT_SET_NO = 999
REV_AT_EPOCH   = 38412
BSTAR          = .14699E-3
MEAN_MOTION_DOT = .2444E-4
MEAN_MOTION_DDOT = 0

